{
    "week": 291,
    "satellites": [
        {
            "Name": "COSMOS 2485 (747)",
            "Line1": "1 39155U 13019A   24309.05425506  .00000040  00000+0  00000+0 0  9994",
            "Line2": "2 39155  65.1083  93.4595 0022889 226.8333 132.9637  2.13101729 89700",
            "SatelliteNumber": "39155",
            "Classification": "U",
            "LaunchYear": "13",
            "LaunchNumber": "019",
            "PieceOfLaunch": "A",
            "EpochYear": "24",
            "EpochDay": 309.05425506,
            "FirstDerivativeMeanMotion": 4e-07,
            "SecondDerivativeMeanMotion": "00000+0",
            "BSTAR": "00000+0",
            "SetNumber": "999",
            "Inclination": 65.1083,
            "RAAN": 93.4595,
            "Eccentricity": 0.0022889,
            "ArgumentOfPerigee": 226.8333,
            "MeanAnomaly": 132.9637,
            "MeanMotion": 2.13101729,
            "RevolutionNumber": "8970"
        },
        {
            "Name": "COSMOS 2492 (754)",
            "Line1": "1 39620U 14012A   24309.47871395 -.00000030  00000+0  00000+0 0  9992",
            "Line2": "2 39620  65.6131 333.9066 0013827 308.8933  51.0398  2.13103232 82675",
            "SatelliteNumber": "39620",
            "Classification": "U",
            "LaunchYear": "14",
            "LaunchNumber": "012",
            "PieceOfLaunch": "A",
            "EpochYear": "24",
            "EpochDay": 309.47871395,
            "FirstDerivativeMeanMotion": -3e-07,
            "SecondDerivativeMeanMotion": "00000+0",
            "BSTAR": "00000+0",
            "SetNumber": "999",
            "Inclination": 65.6131,
            "RAAN": 333.9066,
            "Eccentricity": 0.0013827,
            "ArgumentOfPerigee": 308.8933,
            "MeanAnomaly": 51.0398,
            "MeanMotion": 2.13103232,
            "RevolutionNumber": "8267"
        },
        {
            "Name": "COSMOS 2500 (755)",
            "Line1": "1 40001U 14032A   24309.18698362 -.00000031  00000+0  00000+0 0  9999",
            "Line2": "2 40001  65.5502 333.7105 0008878 217.0640 142.9312  2.13105966 80882",
            "SatelliteNumber": "40001",
            "Classification": "U",
            "LaunchYear": "14",
            "LaunchNumber": "032",
            "PieceOfLaunch": "A",
            "EpochYear": "24",
            "EpochDay": 309.18698362,
            "FirstDerivativeMeanMotion": -3.1e-07,
            "SecondDerivativeMeanMotion": "00000+0",
            "BSTAR": "00000+0",
            "SetNumber": "999",
            "Inclination": 65.5502,
            "RAAN": 333.7105,
            "Eccentricity": 0.0008878,
            "ArgumentOfPerigee": 217.064,
            "MeanAnomaly": 142.9312,
            "MeanMotion": 2.13105966,
            "RevolutionNumber": "8088"
        },
        {
            "Name": "COSMOS 2501 (702K)",
            "Line1": "1 40315U 14075A   24308.97252514  .00000041  00000+0  00000+0 0  9995",
            "Line2": "2 40315  63.6170 210.8211 0019620 206.9957 152.9716  2.13101405 77270",
            "SatelliteNumber": "40315",
            "Classification": "U",
            "LaunchYear": "14",
            "LaunchNumber": "075",
            "PieceOfLaunch": "A",
            "EpochYear": "24",
            "EpochDay": 308.97252514,
            "FirstDerivativeMeanMotion": 4.1e-07,
            "SecondDerivativeMeanMotion": "00000+0",
            "BSTAR": "00000+0",
            "SetNumber": "999",
            "Inclination": 63.617,
            "RAAN": 210.8211,
            "Eccentricity": 0.001962,
            "ArgumentOfPerigee": 206.9957,
            "MeanAnomaly": 152.9716,
            "MeanMotion": 2.13101405,
            "RevolutionNumber": "7727"
        },
        {
            "Name": "COSMOS 2514 (751)",
            "Line1": "1 41330U 16008A   24309.42465355 -.00000030  00000+0  00000+0 0  9990",
            "Line2": "2 41330  65.3437 333.1764 0012943 219.2276 140.7337  2.13102534 68051",
            "SatelliteNumber": "41330",
            "Classification": "U",
            "LaunchYear": "16",
            "LaunchNumber": "008",
            "PieceOfLaunch": "A",
            "EpochYear": "24",
            "EpochDay": 309.42465355,
            "FirstDerivativeMeanMotion": -3e-07,
            "SecondDerivativeMeanMotion": "00000+0",
            "BSTAR": "00000+0",
            "SetNumber": "999",
            "Inclination": 65.3437,
            "RAAN": 333.1764,
            "Eccentricity": 0.0012943,
            "ArgumentOfPerigee": 219.2276,
            "MeanAnomaly": 140.7337,
            "MeanMotion": 2.13102534,
            "RevolutionNumber": "6805"
        },
        {
            "Name": "COSMOS 2522 (752)",
            "Line1": "1 42939U 17055A   24309.26446716  .00000040  00000+0  00000+0 0  9991",
            "Line2": "2 42939  64.0783 211.9820 0007328 235.9761 124.0226  2.13101997 55407",
            "SatelliteNumber": "42939",
            "Classification": "U",
            "LaunchYear": "17",
            "LaunchNumber": "055",
            "PieceOfLaunch": "A",
            "EpochYear": "24",
            "EpochDay": 309.26446716,
            "FirstDerivativeMeanMotion": 4e-07,
            "SecondDerivativeMeanMotion": "00000+0",
            "BSTAR": "00000+0",
            "SetNumber": "999",
            "Inclination": 64.0783,
            "RAAN": 211.982,
            "Eccentricity": 0.0007328,
            "ArgumentOfPerigee": 235.9761,
            "MeanAnomaly": 124.0226,
            "MeanMotion": 2.13101997,
            "RevolutionNumber": "5540"
        },
        {
            "Name": "COSMOS 2527 (756)",
            "Line1": "1 43508U 18053A   24307.34680287  .00000032  00000+0  00000+0 0  9994",
            "Line2": "2 43508  65.2669  93.6974 0008000 215.2556 144.6802  2.13102313 49664",
            "SatelliteNumber": "43508",
            "Classification": "U",
            "LaunchYear": "18",
            "LaunchNumber": "053",
            "PieceOfLaunch": "A",
            "EpochYear": "24",
            "EpochDay": 307.34680287,
            "FirstDerivativeMeanMotion": 3.2e-07,
            "SecondDerivativeMeanMotion": "00000+0",
            "BSTAR": "00000+0",
            "SetNumber": "999",
            "Inclination": 65.2669,
            "RAAN": 93.6974,
            "Eccentricity": 0.0008,
            "ArgumentOfPerigee": 215.2556,
            "MeanAnomaly": 144.6802,
            "MeanMotion": 2.13102313,
            "RevolutionNumber": "4966"
        },
        {
            "Name": "COSMOS 2529 (757)",
            "Line1": "1 43687U 18086A   24309.32256901  .00000040  00000+0  00000+0 0  9999",
            "Line2": "2 43687  64.2940 212.5305 0008644 260.8688  99.1010  2.13102019 46710",
            "SatelliteNumber": "43687",
            "Classification": "U",
            "LaunchYear": "18",
            "LaunchNumber": "086",
            "PieceOfLaunch": "A",
            "EpochYear": "24",
            "EpochDay": 309.32256901,
            "FirstDerivativeMeanMotion": 4e-07,
            "SecondDerivativeMeanMotion": "00000+0",
            "BSTAR": "00000+0",
            "SetNumber": "999",
            "Inclination": 64.294,
            "RAAN": 212.5305,
            "Eccentricity": 0.0008644,
            "ArgumentOfPerigee": 260.8688,
            "MeanAnomaly": 99.101,
            "MeanMotion": 2.13102019,
            "RevolutionNumber": "4671"
        },
        {
            "Name": "COSMOS 2534 (758)",
            "Line1": "1 44299U 19030A   24309.25982953  .00000040  00000+0  00000+0 0  9994",
            "Line2": "2 44299  64.3671 212.4992 0010777 284.8407 161.2329  2.13102085 42351",
            "SatelliteNumber": "44299",
            "Classification": "U",
            "LaunchYear": "19",
            "LaunchNumber": "030",
            "PieceOfLaunch": "A",
            "EpochYear": "24",
            "EpochDay": 309.25982953,
            "FirstDerivativeMeanMotion": 4e-07,
            "SecondDerivativeMeanMotion": "00000+0",
            "BSTAR": "00000+0",
            "SetNumber": "999",
            "Inclination": 64.3671,
            "RAAN": 212.4992,
            "Eccentricity": 0.0010777,
            "ArgumentOfPerigee": 284.8407,
            "MeanAnomaly": 161.2329,
            "MeanMotion": 2.13102085,
            "RevolutionNumber": "4235"
        },
        {
            "Name": "COSMOS 2544 (759)",
            "Line1": "1 44850U 19088A   24309.16800912  .00000041  00000+0  00000+0 0  9995",
            "Line2": "2 44850  65.2543  93.4708 0012145 246.6378 113.2228  2.13102055 38142",
            "SatelliteNumber": "44850",
            "Classification": "U",
            "LaunchYear": "19",
            "LaunchNumber": "088",
            "PieceOfLaunch": "A",
            "EpochYear": "24",
            "EpochDay": 309.16800912,
            "FirstDerivativeMeanMotion": 4.1e-07,
            "SecondDerivativeMeanMotion": "00000+0",
            "BSTAR": "00000+0",
            "SetNumber": "999",
            "Inclination": 65.2543,
            "RAAN": 93.4708,
            "Eccentricity": 0.0012145,
            "ArgumentOfPerigee": 246.6378,
            "MeanAnomaly": 113.2228,
            "MeanMotion": 2.13102055,
            "RevolutionNumber": "3814"
        }
    ]
}